NORAD_CAT_ID,OBJECT_NAME,OBJECT_TYPE,EPOCH,MEAN_MOTION,ECCENTRICITY,INCLINATION,RA_OF_ASC_NODE,ARG_OF_PERICENTER,MEAN_ANOMALY,BSTAR,MEAN_MOTION_DOT,MEAN_MOTION_DDOT,TLE_LINE0,TLE_LINE1,TLE_LINE2,SEMIMAJOR_AXIS,PERIOD,APOGEE,PERIGEE,DECAYED
54072.0,STARLINK-5144,PAYLOAD,2024-07-30 21:47:41,15.08839212,0.0001587,53.2175,98.0284,84.4766,275.6407,0.00015497,2.179e-05,0.0,0 STARLINK-5144,1 54072U 22136X   24212.90812344  .00002179  00000-0  15497-3 0  9992,2 54072  53.2175  98.0284 0001587  84.4766 275.6407 15.08839212 98748,6917.883,95.438,540.846,538.65,0.0
54072.0,STARLINK-5144,PAYLOAD,2024-07-31 08:55:23,15.08839359,0.0001563,53.217,95.9439,94.5852,265.5319,2.1689e-05,5.7e-07,0.0,0 STARLINK-5144,1 54072U 22136X   24213.37180554  .00000057  00000-0  21689-4 0  9999,2 54072  53.2170  95.9439 0001563  94.5852 265.5319 15.08839359 98813,6917.882,95.438,540.829,538.666,0.0
54072.0,STARLINK-5144,PAYLOAD,2024-07-31 21:38:30,15.08826724,0.0001693,53.2176,93.5686,112.6128,247.5044,-0.00011327,-2.09e-05,0.0,0 STARLINK-5144,1 54072U 22136X   24213.90173947 -.00002090  00000-0 -11327-3 0  9994,2 54072  53.2176  93.5686 0001693 112.6128 247.5044 15.08826724 98894,6917.921,95.438,540.957,538.615,0.0
54072.0,STARLINK-5144,PAYLOAD,2024-08-01 08:46:11,15.08837222,0.0001221,53.2167,91.482,101.6526,258.4603,4.3976e-05,4.12e-06,0.0,0 STARLINK-5144,1 54072U 22136X   24214.36540983  .00000412  00000-0  43976-4 0  9993,2 54072  53.2167  91.4820 0001221 101.6526 258.4603 15.08837222 98963,6917.889,95.438,540.599,538.909,0.0
54072.0,STARLINK-5144,PAYLOAD,2024-08-01 21:29:14,15.08859485,0.0001458,53.2172,89.1039,97.2461,262.8697,0.00019507,2.82e-05,0.0,0 STARLINK-5144,1 54072U 22136X   24214.89531132  .00002820  00000-0  19507-3 0  9994,2 54072  53.2172  89.1039 0001458  97.2461 262.8697 15.08859485 99042,6917.821,95.436,540.694,538.677,0.0
54072.0,STARLINK-5144,PAYLOAD,2024-08-01 23:04:37,15.08862302,0.0001377,53.2166,88.8053,89.5893,270.5257,0.0002163,3.158e-05,0.0,0 STARLINK-5144,1 54072U 22136X   24214.96154865  .00003158  00000-0  21630-3 0  9991,2 54072  53.2166  88.8053 0001377  89.5893 270.5257 15.08862302 98577,6917.812,95.436,540.63,538.725,0.0
54072.0,STARLINK-5144,PAYLOAD,2024-08-02 08:36:57,15.088488,0.0001371,53.2163,87.0205,85.611,274.5039,4.2772e-05,3.93e-06,0.0,0 STARLINK-5144,1 54072U 22136X   24215.35899985  .00000393  00000-0  42772-4 0  9993,2 54072  53.2163  87.0205 0001371  85.6110 274.5039 15.08848800 99117,6917.853,95.437,540.667,538.77,0.0
54072.0,STARLINK-5144,PAYLOAD,2024-08-02 14:58:31,15.08821596,0.0001604,53.2175,85.8336,99.052,261.0654,0.00016539,2.344e-05,0.0,0 STARLINK-5144,1 54072U 22136X   24215.62397879  .00002344  00000-0  16539-3 0  9997,2 54072  53.2175  85.8336 0001604  99.0520 261.0654 15.08821596 98671,6917.937,95.439,540.911,538.692,0.0
54072.0,STARLINK-5144,PAYLOAD,2024-08-02 21:20:04,15.08826474,0.0001431,53.2163,84.6443,97.023,263.0924,2.5057e-05,1.11e-06,0.0,0 STARLINK-5144,1 54072U 22136X   24215.88893538  .00000111  00000-0  25057-4 0  9994,2 54072  53.2163  84.6443 0001431  97.0230 263.0924 15.08826474 99198,6917.922,95.438,540.777,538.797,0.0
54072.0,STARLINK-5144,PAYLOAD,2024-08-03 08:27:45,15.08836756,0.0001241,53.2165,82.5589,91.0295,269.084,1.6664e-05,-2.3e-07,0.0,0 STARLINK-5144,1 54072U 22136X   24216.35261136 -.00000023  00000-0  16664-4 0  9997,2 54072  53.2165  82.5589 0001241  91.0295 269.0840 15.08836756 99267,6917.89,95.438,540.614,538.897,0.0
54072.0,STARLINK-5144,PAYLOAD,2024-08-03 21:10:50,15.08850372,0.0001195,53.2152,80.1806,91.2211,268.8918,7.4603e-05,9e-06,0.0,0 STARLINK-5144,1 54072U 22136X   24216.88252341  .00000900  00000-0  74603-4 0  9993,2 54072  53.2152  80.1806 0001195  91.2211 268.8918 15.08850372 99349,6917.849,95.437,540.54,538.887,0.0
54072.0,STARLINK-5144,PAYLOAD,2024-08-03 22:46:12,15.0885733,0.0001226,53.216,79.8841,97.7419,262.3712,8.4337e-05,1.055e-05,0.0,0 STARLINK-5144,1 54072U 22136X   24216.94875951  .00001055  00000-0  84337-4 0  9995,2 54072  53.2160  79.8841 0001226  97.7419 262.3712 15.08857330 98877,6917.827,95.436,540.541,538.844,0.0
54072.0,STARLINK-5144,PAYLOAD,2024-08-04 00:21:35,15.08861097,0.0001227,53.2159,79.5857,98.8943,261.2188,0.00015939,2.251e-05,0.0,0 STARLINK-5144,1 54072U 22136X   24217.01499742  .00002251  00000-0  15939-3 0  9994,2 54072  53.2159  79.5857 0001227  98.8943 261.2188 15.08861097 99369,6917.816,95.436,540.53,538.832,0.0
54072.0,STARLINK-5144,PAYLOAD,2024-08-04 08:18:32,15.08846154,0.0001168,53.2165,78.1001,106.7988,253.3132,0.00021105,3.073e-05,0.0,0 STARLINK-5144,1 54072U 22136X   24217.34620495  .00003073  00000-0  21105-3 0  9996,2 54072  53.2165  78.1001 0001168 106.7988 253.3132 15.08846154 99418,6917.862,95.437,540.535,538.919,0.0
54072.0,STARLINK-5144,PAYLOAD,2024-08-04 21:01:37,15.08847355,0.0001069,53.2159,75.7186,110.628,249.4827,0.0003547,5.363e-05,0.0,0 STARLINK-5144,1 54072U 22136X   24217.87612516  .00005363  00000-0  35470-3 0  9993,2 54072  53.2159  75.7186 0001069 110.6280 249.4827 15.08847355 99014,6917.858,95.437,540.462,538.983,0.0
54072.0,STARLINK-5144,PAYLOAD,2024-08-05 00:12:23,15.08861342,0.000145,53.2162,75.1238,107.2437,252.8714,0.00048528,7.448e-05,0.0,0 STARLINK-5144,1 54072U 22136X   24218.00859966  .00007448  00000-0  48528-3 0  9995,2 54072  53.2162  75.1238 0001450 107.2437 252.8714 15.08861342 99510,6917.815,95.436,540.683,538.677,0.0
54072.0,STARLINK-5144,PAYLOAD,2024-08-05 20:52:24,15.0884122,0.0001515,53.2166,71.2616,95.1798,264.9367,0.00013636,1.883e-05,0.0,0 STARLINK-5144,1 54072U 22136X   24218.86972594  .00001883  00000-0  13636-3 0  9991,2 54072  53.2166  71.2616 0001515  95.1798 264.9367 15.08841220 99643,6917.877,95.437,540.79,538.694,0.0
54072.0,STARLINK-5144,PAYLOAD,2024-08-06 06:24:43,15.08843632,0.0001615,53.2168,69.4753,97.5695,262.5481,0.00015866,2.238e-05,0.0,0 STARLINK-5144,1 54072U 22136X   24219.26716510  .00002238  00000-0  15866-3 0  9992,2 54072  53.2168  69.4753 0001615  97.5695 262.5481 15.08843632 99223,6917.869,95.437,540.852,538.617,0.0
54072.0,STARLINK-5144,PAYLOAD,2024-08-06 19:07:48,15.08833573,0.0001468,53.2172,67.0972,93.9899,266.1261,-2.9555e-05,-7.58e-06,0.0,0 STARLINK-5144,1 54072U 22136X   24219.79709023 -.00000758  00000-0 -29555-4 0  9999,2 54072  53.2172  67.0972 0001468  93.9899 266.1261 15.08833573 99787,6917.9,95.438,540.781,538.749,0.0
54072.0,STARLINK-5144,PAYLOAD,2024-08-06 23:53:57,15.08842591,0.0001547,53.2173,66.2031,104.4733,255.643,-7.0072e-06,-4e-06,0.0,0 STARLINK-5144,1 54072U 22136X   24219.99580610 -.00000400  00000-0 -70072-5 0  9995,2 54072  53.2173  66.2031 0001547 104.4733 255.6430 15.08842591 99813,6917.872,95.437,540.808,538.667,0.0
54072.0,STARLINK-5144,PAYLOAD,2024-08-07 12:37:03,15.08836238,0.0001813,53.2169,63.8231,119.8409,240.2763,8.367e-05,1.044e-05,0.0,0 STARLINK-5144,1 54072U 22136X   24220.52573026  .00001044  00000-0  83670-4 0  9999,2 54072  53.2169  63.8231 0001813 119.8409 240.2763 15.08836238 99415,6917.892,95.438,541.011,538.503,0.0
54072.0,STARLINK-5144,PAYLOAD,2024-08-07 20:33:58,15.08844916,0.0001449,53.2165,62.3389,97.9939,262.1217,0.00016498,2.339e-05,0.0,0 STARLINK-5144,1 54072U 22136X   24220.85692656  .00002339  00000-0  16498-3 0  9997,2 54072  53.2165  62.3389 0001449  97.9939 262.1217 15.08844916 99462,6917.865,95.437,540.733,538.728,0.0
54072.0,STARLINK-5144,PAYLOAD,2024-08-08 17:14:00,15.08834597,0.0001441,53.2171,58.4751,88.897,271.2187,0.00010667,1.41e-05,0.0,0 STARLINK-5144,1 54072U 22136X   24221.71805726  .00001410  00000-0  10667-3 0  9998,2 54072  53.2171  58.4751 0001441  88.8970 271.2187 15.08834597100075,6917.897,95.438,540.759,538.765,0.0
54072.0,STARLINK-5144,PAYLOAD,2024-08-09 12:18:37,15.08845379,0.0001429,53.2177,54.9097,82.91,277.2055,0.00024892,3.676e-05,0.0,0 STARLINK-5144,1 54072U 22136X   24222.51293318  .00003676  00000-0  24892-3 0  9996,2 54072  53.2177  54.9097 0001429  82.9100 277.2055 15.08845379100194,6917.864,95.437,540.718,538.74,0.0
54072.0,STARLINK-5144,PAYLOAD,2024-08-09 21:50:55,15.08856945,0.0001314,53.2165,53.1194,88.7706,271.3437,0.00042549,6.493e-05,0.0,0 STARLINK-5144,1 54072U 22136X   24222.91036624  .00006493  00000-0  42549-3 0  9994,2 54072  53.2165  53.1194 0001314  88.7706 271.3437 15.08856945 99770,6917.829,95.436,540.603,538.785,0.0
54072.0,STARLINK-5144,PAYLOAD,2024-08-10 12:09:24,15.08844937,0.0001565,53.2166,50.4481,77.7495,282.3672,0.00011272,1.507e-05,0.0,0 STARLINK-5144,1 54072U 22136X   24223.50653260  .00001507  00000-0  11272-3 0  9991,2 54072  53.2166  50.4481 0001565  77.7495 282.3672 15.08844937100348,6917.865,95.437,540.813,538.648,0.0
54072.0,STARLINK-5144,PAYLOAD,2024-08-10 20:06:19,15.08851084,0.000142,53.2161,48.9604,73.8477,286.2671,0.00023323,3.427e-05,0.0,0 STARLINK-5144,1 54072U 22136X   24223.83772949  .00003427  00000-0  23323-3 0  9996,2 54072  53.2161  48.9604 0001420  73.8477 286.2671 15.08851084 99912,6917.847,95.437,540.694,538.729,0.0
54072.0,STARLINK-5144,PAYLOAD,2024-08-11 18:21:44,15.08841565,0.0001227,53.2173,44.7941,84.3154,275.7978,0.00014614,2.039e-05,0.0,0 STARLINK-5144,1 54072U 22136X   24224.76509277  .00002039  00000-0  14614-3 0  9992,2 54072  53.2173  44.7941 0001227  84.3154 275.7978 15.08841565100534,6917.876,95.437,540.589,538.892,0.0
54072.0,STARLINK-5144,PAYLOAD,2024-08-12 05:29:25,15.08849824,0.0001633,53.217,42.7156,78.1755,281.9421,0.00021145,3.08e-05,0.0,0 STARLINK-5144,1 54072U 22136X   24225.22877019  .00003080  00000-0  21145-3 0  9990,2 54072  53.2170  42.7156 0001633  78.1755 281.9421 15.08849824100129,6917.85,95.437,540.845,538.586,0.0
54072.0,STARLINK-5144,PAYLOAD,2024-08-12 21:23:16,15.0887006,0.0001746,53.2164,39.7369,102.6888,257.43,0.00081063,0.00012647,0.0,0 STARLINK-5144,1 54072U 22136X   24225.89116175  .00012647  00000-0  81063-3 0  9996,2 54072  53.2164  39.7369 0001746 102.6888 257.4300 15.08870060100703,6917.789,95.436,540.861,538.446,0.0
